IRIDIUM 8 [+]           
1 24792U 97020A   07272.80981181 -.00001348  00000-0 -48874-3 0  8975
2 24792  86.4018   1.6564 0002373  89.2103 270.9110 14.34212652544602
IRIDIUM 7 [+]           
1 24793U 97020B   07272.80353751  .00000172  00000-0  54422-4 0  8959
2 24793  86.4025   1.7631 0002418  87.7602 272.3923 14.34219457544602
IRIDIUM 6 [+]           
1 24794U 97020C   07272.79723428  .00000159  00000-0  49585-4 0  7004
2 24794  86.4023   1.7629 0002531  84.2357 275.9174 14.34219660544606
IRIDIUM 5 [+]           
1 24795U 97020D   07272.79093032  .00000191  00000-0  61242-4 0  9963
2 24795  86.4019   1.9457 0002128  49.9786 310.1634 14.34219878544681
IRIDIUM 4 [+]           
1 24796U 97020E   07272.74639383  .00000081  00000-0  21932-4 0  9245
2 24796  86.4016   1.6030 0002479  88.0405 272.1059 14.34222289544615
IRIDIUM 914 [-]         
1 24836U 97030A   07272.73764932  .00000082  00000-0  20754-4 0  7373
2 24836  86.3954  27.5146 0001268 112.8766 247.2574 14.37359801539035
IRIDIUM 12 [+]          
1 24837U 97030B   07272.80715287  .00000122  00000-0  36646-4 0  9128
2 24837  86.3972  33.1248 0002292  88.1583 271.9923 14.34212495538352
IRIDIUM 10 [+]          
1 24839U 97030D   07272.79440483  .00000135  00000-0  41014-4 0  8994
2 24839  86.3974  33.1313 0002315  87.1010 273.0475 14.34214790538365
IRIDIUM 13 [+]          
1 24840U 97030E   07272.81342954  .00000082  00000-0  22130-4 0  8767
2 24840  86.3975  33.1836 0002401  87.6923 272.4589 14.34213513538352
IRIDIUM 16 [-]          
1 24841U 97030F   07272.81965305  .00000041  00000-0  73439-5 0  8897
2 24841  86.4054  33.5755 0003407  48.5449 311.6071 14.35196081538434
IRIDIUM 911 [-]         
1 24842U 97030G   07272.33962234  .00000105  00000-0  25468-4 0  8117
2 24842  86.4460  36.2257 0014768 344.7431  15.3321 14.43066178540887
IRIDIUM 15 [+]          
1 24869U 97034A   07272.80391178 -.00000012  00000-0 -11176-4 0  9183
2 24869  86.3901  64.7814 0002167  84.8785 275.2683 14.34213556535329
IRIDIUM 17 [-]          
1 24870U 97034B   07272.82896439 -.00000008  00000-0 -10065-4 0  8761
2 24870  86.3908  64.7473 0002233  82.5445 277.6013 14.34350905535335
IRIDIUM 920 [-]         
1 24871U 97034C   07272.33391599  .00000099  00000-0  26243-4 0  7565
2 24871  86.3922  59.5321 0013826 111.6463 248.6214 14.37987715536149
IRIDIUM 18 [+]          
1 24872U 97034D   07272.48679994 -.00000131  00000-0 -53863-4 0  9019
2 24872  86.3911  65.0345 0002365  84.4446 275.7024 14.34212066535270
IRIDIUM 921 [-]         
1 24873U 97034E   07272.25860593  .00000903  00000-0  76298-4 0   206
2 24873  86.3812 281.2503 0006486 294.6061  65.4469 14.96773192555421
IRIDIUM 26 [+]          
1 24903U 97043A   07272.61262657  .00000024  00000-0  13376-5 0  9928
2 24903  86.3914 298.5879 0002464  86.9518 273.1986 14.34219322529230
IRIDIUM 25 [+]          
1 24904U 97043B   07272.57458783 -.00000043  00000-0 -22430-4 0  8990
2 24904  86.3915 298.5636 0002434  85.1710 274.9753 14.34221160529194
IRIDIUM 46 [+]          
1 24905U 97043C   07272.58725547  .00000021  00000-0  29732-6 0  9075
2 24905  86.3919 298.7826 0002469  84.8121 275.3363 14.34219425529207
IRIDIUM 23 [+]          
1 24906U 97043D   07272.56188555 -.00000038  00000-0 -20588-4 0  9108
2 24906  86.3910 298.5140 0002469  84.8027 275.3459 14.34218998529201
IRIDIUM 22 [+]          
1 24907U 97043E   07272.62530988 -.00000017  00000-0 -13165-4 0  8814
2 24907  86.3924 298.7977 0002432  86.5682 273.5817 14.34219318529219
DUMMY MASS 1 [-]        
1 24925U 97048A   07272.82796402  .00000090  00000-0  74927-5 0  6907
2 24925  86.3308 236.9977 0007036 351.9938   8.1173 14.83779418545252
DUMMY MASS 2 [-]        
1 24926U 97048B   07272.87123597  .00000058  00000-0  36857-5 0  6805
2 24926  86.3308 237.5269 0007939 352.7732   7.3394 14.83560653545184
IRIDIUM 29 [+]          
1 24944U 97051A   07272.70491022  .00000167  00000-0  52588-4 0  8555
2 24944  86.3987 330.1389 0002426  89.0586 271.0921 14.34221845525797
IRIDIUM 32 [+]          
1 24945U 97051B   07272.65417088  .00000102  00000-0  29428-4 0  8758
2 24945  86.3984 330.1716 0002451  88.3393 271.8082 14.34221342525805
IRIDIUM 33 [+]          
1 24946U 97051C   07272.66051233  .00000076  00000-0  19997-4 0  8565
2 24946  86.3990 330.2126 0002478  87.4707 272.6763 14.34221291525793
IRIDIUM 28 [+]          
1 24948U 97051E   07272.69853503  .00000184  00000-0  58685-4 0  7173
2 24948  86.3997 330.2787 0002246  87.7292 272.4199 14.34224919525780
IRIDIUM 30 [+]          
1 24949U 97051F   07272.64782811  .00000109  00000-0  31937-4 0  9048
2 24949  86.3987 330.2180 0002493  86.7108 273.4398 14.34221461525787
IRIDIUM 31 [+]          
1 24950U 97051G   07272.71125173  .00000107  00000-0  31131-4 0  8885
2 24950  86.3986 330.1779 0002475  86.4986 273.6517 14.34221467525806
IRIDIUM 19 [+]          
1 24965U 97056A   07272.76544539  .00000089  00000-0  24639-4 0  8639
2 24965  86.4018   1.6437 0002418  87.8134 272.3381 14.34220879523952
IRIDIUM 35 [+]          
1 24966U 97056B   07272.77819531  .00000247  00000-0  81128-4 0  9158
2 24966  86.4020   1.6682 0002407  88.0294 272.1232 14.34218670523933
IRIDIUM 36 [-]          
1 24967U 97056C   07272.78293510  .00000096  00000-0  27159-4 0  8518
2 24967  86.4026   1.7146 0002268  81.5574 278.5901 14.34238244524078
IRIDIUM 37 [+]          
1 24968U 97056D   07272.75273695 -.00000147  00000-0 -59689-4 0  8813
2 24968  86.4022   1.7588 0002419  87.7585 272.4052 14.34213821523931
IRIDIUM 34 [+]          
1 24969U 97056E   07272.77181782  .00000208  00000-0  67124-4 0  8764
2 24969  86.4020   1.7003 0002382  87.6057 272.5430 14.34218261523938
IRIDIUM 43 [+]          
1 25039U 97069A   07272.82930846 -.00000120  00000-0 -49915-4 0  8624
2 25039  86.3911  64.9051 0002226  86.3743 273.7685 14.34211618517728
IRIDIUM 41 [+]          
1 25040U 97069B   07272.82296208 -.00000108  00000-0 -45544-4 0  8522
2 25040  86.3907  64.8349 0002217  83.4883 276.6541 14.34211769517727
IRIDIUM 40 [+]          
1 25041U 97069C   07272.49948842 -.00000062  00000-0 -29383-4 0  8683
2 25041  86.3904  64.9459 0002197  82.9980 277.1471 14.34212111517693
IRIDIUM 39 [+]          
1 25042U 97069D   07272.78488171 -.00000022  00000-0 -14910-4 0  8484
2 25042  86.3911  64.8959 0002321  77.7891 282.3584 14.34212931517714
IRIDIUM 38 [-]          
1 25043U 97069E   07272.48969938  .00000016  00000-0 -13336-5 0  8807
2 25043  86.3904  64.5659 0002712  76.1803 283.9685 14.34616510517755
IRIDIUM 42 [+]          
1 25077U 97077A   07272.49314684 -.00000086  00000-0 -37660-4 0  8685
2 25077  86.3908  65.0122 0002181  81.8689 278.2753 14.34212020513535
IRIDIUM 44 [-]          
1 25078U 97077B   07272.08139602  .00000075  00000-0  18977-4 0  6343
2 25078  86.3905  61.6881 0003620  49.5929 310.5584 14.36469606513903
IRIDIUM 45 [+]          
1 25104U 97082A   07272.58091257 -.00000555  00000-0 -20515-3 0  8108
2 25104  86.3905 298.6026 0002469  84.0799 276.0646 14.34217978511741
IRIDIUM 24 [-]          
1 25105U 97082B   07272.19451592  .00000127  00000-0  35287-4 0  6898
2 25105  86.3880 291.3614 0013376 119.0347 241.2191 14.38161816512534
IRIDIUM 47 [+]          
1 25106U 97082C   07272.73313416 -.00000017  00000-0 -13203-4 0  8044
2 25106  86.3912 298.4833 0002496  86.8538 273.2924 14.34219183511766
IRIDIUM 49 [+]          
1 25108U 97082E   07272.74582107 -.00000006  00000-0 -91125-5 0  8219
2 25108  86.3916 298.4816 0002486  86.6592 273.4915 14.34219093511773
IRIDIUM 52 [+]          
1 25169U 98010A   07272.77532396  .00000105  00000-0  30403-4 0  6099
2 25169  86.3977  33.2700 0002315  86.2230 273.9228 14.34214501503187
IRIDIUM 56 [+]          
1 25170U 98010B   07272.76899369  .00000100  00000-0  28772-4 0  2521
2 25170  86.3981  33.3040 0002314  87.8691 272.2777 14.34215021503166
IRIDIUM 54 [+]          
1 25171U 98010C   07272.80074061  .00000160  00000-0  50174-4 0  8322
2 25171  86.3975  33.2590 0002287  87.5522 272.5984 14.34214901503336
IRIDIUM 50 [+]          
1 25172U 98010D   07272.83243442  .00000013  00000-0 -25573-5 0  8501
2 25172  86.3976  33.2198 0002350  87.4411 272.7057 14.34214384503179
IRIDIUM 53 [+]          
1 25173U 98010E   07272.78168246  .00000134  00000-0  40890-4 0  8369
2 25173  86.3978  33.2520 0002303  86.9751 273.1721 14.34215205503176
IRIDIUM 51 [S]          
1 25262U 98018A   07272.79178950  .00000168  00000-0  44223-4 0  9340
2 25262  86.4538   1.7266 0002344  91.4953 268.6542 14.42944323501048
IRIDIUM 61 [+]          
1 25263U 98018B   07272.75907007 -.00000598  00000-0 -22068-3 0  7833
2 25263  86.4017   1.7369 0002324  86.1770 273.9482 14.34218225498268
IRIDIUM 55 [+]          
1 25272U 98019A   07272.69222594  .00000229  00000-0  74847-4 0  7841
2 25272  86.3985 330.0933 0002430  87.4401 272.7101 14.34221912497451
IRIDIUM 57 [+]          
1 25273U 98019B   07272.66686502 -.00000021  00000-0 -14695-4 0  8154
2 25273  86.3989 330.2538 0002429  86.6780 273.4647 14.34218006497451
IRIDIUM 58 [+]          
1 25274U 98019C   07272.67319941  .00000193  00000-0  61864-4 0  6343
2 25274  86.3991 330.3415 0002469  85.7583 274.3902 14.34221658497456
IRIDIUM 59 [+]          
1 25275U 98019D   07272.67953846  .00000167  00000-0  52414-4 0  4948
2 25275  86.4005 330.3837 0002492  64.8283 295.3170 14.34221894497455
IRIDIUM 60 [+]          
1 25276U 98019E   07272.82542266  .00000164  00000-0  51597-4 0  8386
2 25276  86.3983 330.0823 0002454  90.4709 269.6763 14.34221329497475
IRIDIUM 62 [+]          
1 25285U 98021A   07272.50769177 -.00000119  00000-0 -49604-4 0  8137
2 25285  86.3881 266.9908 0002407  84.1027 276.0425 14.34215291496381
IRIDIUM 63 [+]          
1 25286U 98021B   07272.51403124 -.00000055  00000-0 -26657-4 0  8183
2 25286  86.3887 267.0580 0002454  82.9139 277.2344 14.34215811496389
